DELTA 2 R/B             
1 25876U 99041E   26065.04371818  .00001313  00000+0  24927-3 0  9996
2 25876  51.7640 315.8429 0502356 337.6757  20.2978 14.11825671362515
HELIOS 1B               
1 25977U 99064A   26065.21637474  .00002740  00000+0  30732-3 0  9991
2 25977  98.1699 327.3579 0002494  79.5565 280.5931 14.87682252684748
TERRA                   
1 25994U 99068A   26065.22407828  .00000628  00000+0  13705-3 0  9997
2 25994  97.9600 118.7911 0002496 159.7278 270.0945 14.61010573394573
SL-16 R/B               
1 26070U 00006B   26065.26795198  .00000080  00000+0  64813-4 0  9990
2 26070  71.0011 105.0327 0017034 194.9728 165.0893 14.15825510348076
TITAN 4B R/B            
1 26474U 00047B   26065.25109268  .00005431  00000+0  34026-3 0  9996
2 26474  67.9893  50.1787 0038272  39.4556 320.9368 15.09520809392395
ENVISAT                 
1 27386U 02009A   26065.29547954  .00000195  00000+0  76885-4 0  9993
2 27386  98.3724  18.9737 0001328  84.3919  85.2665 14.39035489258681
IDEFIX & ARIANE 42P R/B 
1 27422U 02021B   26065.27954242  .00000409  00000+0  17191-3 0  9990
2 27422  98.5866   3.9266 0011375 192.4014 167.6891 14.31023344243535
AQUA                    
1 27424U 02022A   26065.27060947  .00001501  00000+0  30943-3 0  9997
2 27424  98.4171  32.5734 0000596  64.3076  39.4624 14.61967232268231
CZ-4B R/B               
1 27432U 02024C   26065.10532499  .00000058  00000+0  52574-4 0  9997
2 27432  98.8845 118.5299 0050652  34.3103 354.9841 14.14546941228734
MIDORI II (ADEOS-II)    
1 27597U 02056A   26065.30346601  .00000436  00000+0  18923-3 0  9993
2 27597  98.7766  23.7577 0001717  47.5145 312.6182 14.29282029209810
H-2A R/B                
1 27601U 02056E   26065.30768515  .00000374  00000+0  14548-3 0  9991
2 27601  98.3198  25.8021 0070300 170.6986 353.1649 14.33758144213626
CZ-4B R/B               
1 28059U 03049C   26064.94512384  .00000485  00000+0  12293-3 0  9990
2 28059  98.6876  59.7030 0047125 242.5758 117.0641 14.55015715186050
CZ-2C R/B               
1 28222U 04012C   26065.15474061  .00056169  00000+0  59126-3 0  9992
2 28222  97.7238 130.1132 0013263 323.5364  36.4989 15.64013937203728
SL-16 R/B               
1 28353U 04021B   26064.92138566 -.00000203  00000+0 -80854-4 0  9991
2 28353  70.9992 240.4008 0003822  16.5605 343.5641 14.14599085122305
CZ-4B R/B               
1 28415U 04035C   26065.04808869  .00009141  00000+0  32262-3 0  9996
2 28415  97.3498  99.3339 0031382 344.8011  15.2283 15.28983649179357
CZ-2C R/B               
1 28480U 04046B   26065.26010157  .00000158  00000+0  73645-4 0  9999
2 28480  98.1986 340.4574 0139689 164.5534 195.9978 14.26990671108019
ARIANE 5 R/B            
1 28499U 04049H   26065.19688002  .00001083  00000+0  12558-3 0  9997
2 28499  98.2619 233.5232 0084185   3.2639 356.9106 14.85258408145272
